GLOBALSTAR M023         
1 25621U 99004A   25151.59683663 -.00000027  00000+0  42915-3 0  9991
2 25621  52.0097 103.9577 0009724  86.4777  84.6430 12.62505420213631
GLOBALSTAR M040         
1 25622U 99004B   25151.24169719 -.00000111  00000+0 -38380-4 0  9992
2 25622  51.9902 109.1688 0001179   6.6414 131.5938 12.62010957213118
GLOBALSTAR M036         
1 25623U 99004C   25151.53582229  .00000017  00000+0  14556-2 0  9990
2 25623  51.9973 284.2120 0011007  24.5809  54.6489 11.86601710177002
GLOBALSTAR M038         
1 25624U 99004D   25151.32857856 -.00000079  00000+0  13064-3 0  9992
2 25624  51.9952 120.1211 0002155  16.9685 131.3954 12.32527787200291
GLOBALSTAR M022         
1 25649U 99012A   25151.44259640 -.00000081  00000+0  73357-4 0  9993
2 25649  52.0062 336.4211 0003191 131.1284 259.1502 12.02500091174362
GLOBALSTAR M041         
1 25650U 99012B   25151.51286176 -.00000038  00000+0  60957-3 0  9990
2 25650  52.0004 217.1771 0001530 272.3467  87.7194 11.96679891176284
GLOBALSTAR M046         
1 25651U 99012C   25151.63865050 -.00000191  00000+0 -11330-2 0  9999
2 25651  52.0060 286.6263 0002124 201.4159 171.9875 12.09408534182014
GLOBALSTAR M037         
1 25652U 99012D   25151.54010050 -.00000056  00000+0  26431-3 0  9990
2 25652  51.9997 234.7590 0002509 150.9900 222.0972 12.62445532209179
